{
  "type": "FeatureCollection",
  "features": [
    {
      "type": "Feature",
      "properties": {
        "norad_id": 41581,
        "name": "INTELSAT 31 (IS-31)",
        "group": "intelsat",
        "lat": 0.002075129260923758,
        "lon": -49.33234030071158,
        "alt_km": 35785.95231132022,
        "timestamp": "2025-12-10T21:43:21.754486+00:00",
        "meta_object_name": "INTELSAT 31 (IS-31)",
        "meta_object_id": "2016-035A",
        "meta_epoch": "2025-12-10T01:11:38.648832",
        "meta_mean_motion": 1.00271715,
        "meta_eccentricity": 0.00019309,
        "meta_inclination": 0.0151,
        "meta_ra_of_asc_node": 272.9636,
        "meta_arg_of_pericenter": 308.7299,
        "meta_mean_anomaly": 140.183,
        "meta_ephemeris_type": 0,
        "meta_classification_type": "U",
        "meta_norad_cat_id": 41581,
        "meta_element_set_no": 999,
        "meta_rev_at_epoch": 3478,
        "meta_bstar": 0,
        "meta_mean_motion_dot": -1.48e-06,
        "meta_mean_motion_ddot": 0,
        "tle_line1": "1 41581U 16035A   25344.04975288 -.00000148  00000+0  00000+0 0  9997",
        "tle_line2": "2 41581   0.0151 272.9636 0001930 308.7299 140.1830  1.00271715 34787"
      },
      "geometry": {
        "type": "Point",
        "coordinates": [
          -49.33234030071158,
          0.002075129260923758
        ]
      }
    },
    {
      "type": "Feature",
      "properties": {
        "norad_id": 41747,
        "name": "INTELSAT 36 (IS-36)",
        "group": "intelsat",
        "lat": 0.026732694783588043,
        "lon": 114.20396124539091,
        "alt_km": 35791.942133331744,
        "timestamp": "2025-12-10T21:43:21.754498+00:00",
        "meta_object_name": "INTELSAT 36 (IS-36)",
        "meta_object_id": "2016-053A",
        "meta_epoch": "2025-12-10T13:41:17.219616",
        "meta_mean_motion": 1.0027016,
        "meta_eccentricity": 0.0001428,
        "meta_inclination": 0.0132,
        "meta_ra_of_asc_node": 9.5516,
        "meta_arg_of_pericenter": 310.4623,
        "meta_mean_anomaly": 33.3395,
        "meta_ephemeris_type": 0,
        "meta_classification_type": "U",
        "meta_norad_cat_id": 41747,
        "meta_element_set_no": 999,
        "meta_rev_at_epoch": 3405,
        "meta_bstar": 0,
        "meta_mean_motion_dot": -2e-07,
        "meta_mean_motion_ddot": 0,
        "tle_line1": "1 41747U 16053A   25344.57033819 -.00000020  00000+0  00000+0 0  9993",
        "tle_line2": "2 41747   0.0132   9.5516 0001428 310.4623  33.3395  1.00270160 34056"
      },
      "geometry": {
        "type": "Point",
        "coordinates": [
          114.20396124539091,
          0.026732694783588043
        ]
      }
    },
    {
      "type": "Feature",
      "properties": {
        "norad_id": 41945,
        "name": "INTELSAT 32E (IS-32E)",
        "group": "intelsat",
        "lat": -0.019752039645314315,
        "lon": 2.525908999287212,
        "alt_km": 35784.890313394055,
        "timestamp": "2025-12-10T21:43:21.754509+00:00",
        "meta_object_name": "INTELSAT 32E (IS-32E)",
        "meta_object_id": "2017-007B",
        "meta_epoch": "2025-12-10T03:03:53.342208",
        "meta_mean_motion": 1.00269421,
        "meta_eccentricity": 4.637e-05,
        "meta_inclination": 0.0308,
        "meta_ra_of_asc_node": 74.2272,
        "meta_arg_of_pericenter": 283.5748,
        "meta_mean_anomaly": 84.0991,
        "meta_ephemeris_type": 0,
        "meta_classification_type": "U",
        "meta_norad_cat_id": 41945,
        "meta_element_set_no": 999,
        "meta_rev_at_epoch": 3232,
        "meta_bstar": 0,
        "meta_mean_motion_dot": -2.66e-06,
        "meta_mean_motion_ddot": 0,
        "tle_line1": "1 41945U 17007B   25344.12770072 -.00000266  00000+0  00000+0 0  9995",
        "tle_line2": "2 41945   0.0308  74.2272 0000463 283.5748  84.0991  1.00269421 32326"
      },
      "geometry": {
        "type": "Point",
        "coordinates": [
          2.525908999287212,
          -0.019752039645314315
        ]
      }
    },
    {
      "type": "Feature",
      "properties": {
        "norad_id": 42818,
        "name": "INTELSAT 35E (IS-35E)",
        "group": "intelsat",
        "lat": 0.019154914616891408,
        "lon": 11.222947792206444,
        "alt_km": 35789.20197491641,
        "timestamp": "2025-12-10T21:43:21.754521+00:00",
        "meta_object_name": "INTELSAT 35E (IS-35E)",
        "meta_object_id": "2017-041A",
        "meta_epoch": "2025-12-10T03:06:23.102784",
        "meta_mean_motion": 1.00269308,
        "meta_eccentricity": 0.00022638,
        "meta_inclination": 0.0177,
        "meta_ra_of_asc_node": 338.821,
        "meta_arg_of_pericenter": 288.1751,
        "meta_mean_anomaly": 184.2033,
        "meta_ephemeris_type": 0,
        "meta_classification_type": "U",
        "meta_norad_cat_id": 42818,
        "meta_element_set_no": 999,
        "meta_rev_at_epoch": 3092,
        "meta_bstar": 0,
        "meta_mean_motion_dot": -2.35e-06,
        "meta_mean_motion_ddot": 0,
        "tle_line1": "1 42818U 17041A   25344.12943406 -.00000235  00000+0  00000+0 0  9992",
        "tle_line2": "2 42818   0.0177 338.8210 0002263 288.1751 184.2033  1.00269308 30924"
      },
      "geometry": {
        "type": "Point",
        "coordinates": [
          11.222947792206444,
          0.019154914616891408
        ]
      }
    },
    {
      "type": "Feature",
      "properties": {
        "norad_id": 42950,
        "name": "INTELSAT 37E (IS-37E)",
        "group": "intelsat",
        "lat": 0.009715326096075253,
        "lon": 27.734554880734557,
        "alt_km": 35796.01379816027,
        "timestamp": "2025-12-10T21:43:21.754533+00:00",
        "meta_object_name": "INTELSAT 37E (IS-37E)",
        "meta_object_id": "2017-059A",
        "meta_epoch": "2025-12-10T06:37:38.586720",
        "meta_mean_motion": 1.00270776,
        "meta_eccentricity": 0.00033345,
        "meta_inclination": 0.0135,
        "meta_ra_of_asc_node": 25.5168,
        "meta_arg_of_pericenter": 229.1399,
        "meta_mean_anomaly": 266.0057,
        "meta_ephemeris_type": 0,
        "meta_classification_type": "U",
        "meta_norad_cat_id": 42950,
        "meta_element_set_no": 999,
        "meta_rev_at_epoch": 3017,
        "meta_bstar": 0,
        "meta_mean_motion_dot": -1.37e-06,
        "meta_mean_motion_ddot": 0,
        "tle_line1": "1 42950U 17059A   25344.27614105 -.00000137  00000+0  00000+0 0  9996",
        "tle_line2": "2 42950   0.0135  25.5168 0003334 229.1399 266.0057  1.00270776 30173"
      },
      "geometry": {
        "type": "Point",
        "coordinates": [
          27.734554880734557,
          0.009715326096075253
        ]
      }
    },
    {
      "type": "Feature",
      "properties": {
        "norad_id": 43632,
        "name": "AZERSPACE 2 (IS-38)",
        "group": "intelsat",
        "lat": 0.033318973713150055,
        "lon": 90.81346191254192,
        "alt_km": 35792.624089988305,
        "timestamp": "2025-12-10T21:43:21.754545+00:00",
        "meta_object_name": "AZERSPACE 2 (IS-38)",
        "meta_object_id": "2018-074A",
        "meta_epoch": "2025-12-10T02:36:38.720736",
        "meta_mean_motion": 1.00270845,
        "meta_eccentricity": 0.0001522,
        "meta_inclination": 0.0163,
        "meta_ra_of_asc_node": 347.1733,
        "meta_arg_of_pericenter": 275.6759,
        "meta_mean_anomaly": 260.508,
        "meta_ephemeris_type": 0,
        "meta_classification_type": "U",
        "meta_norad_cat_id": 43632,
        "meta_element_set_no": 999,
        "meta_rev_at_epoch": 2655,
        "meta_bstar": 0,
        "meta_mean_motion_dot": 1.4e-06,
        "meta_mean_motion_ddot": 0,
        "tle_line1": "1 43632U 18074A   25344.10878149  .00000140  00000+0  00000+0 0  9997",
        "tle_line2": "2 43632   0.0163 347.1733 0001522 275.6759 260.5080  1.00270845 26555"
      },
      "geometry": {
        "type": "Point",
        "coordinates": [
          90.81346191254192,
          0.033318973713150055
        ]
      }
    },
    {
      "type": "Feature",
      "properties": {
        "norad_id": 43633,
        "name": "HORIZONS-3E",
        "group": "intelsat",
        "lat": -0.0016980225868649828,
        "lon": -145.30428275068485,
        "alt_km": 35786.46947354524,
        "timestamp": "2025-12-10T21:43:21.754556+00:00",
        "meta_object_name": "HORIZONS-3E",
        "meta_object_id": "2018-074B",
        "meta_epoch": "2025-12-10T14:21:58.074048",
        "meta_mean_motion": 1.00266688,
        "meta_eccentricity": 0.00013069,
        "meta_inclination": 0.0425,
        "meta_ra_of_asc_node": 176.7066,
        "meta_arg_of_pericenter": 117.3896,
        "meta_mean_anomaly": 169.9725,
        "meta_ephemeris_type": 0,
        "meta_classification_type": "U",
        "meta_norad_cat_id": 43633,
        "meta_element_set_no": 999,
        "meta_rev_at_epoch": 2645,
        "meta_bstar": 0,
        "meta_mean_motion_dot": -2.7e-07,
        "meta_mean_motion_ddot": 0,
        "tle_line1": "1 43633U 18074B   25344.59858882 -.00000027  00000+0  00000+0 0  9998",
        "tle_line2": "2 43633   0.0425 176.7066 0001306 117.3896 169.9725  1.00266688 26453"
      },
      "geometry": {
        "type": "Point",
        "coordinates": [
          -145.30428275068485,
          -0.0016980225868649828
        ]
      }
    }
  ]
}